[{"OBJECT_NAME":"KUIPER-00092","OBJECT_ID":"2025-151X","EPOCH":"2026-03-08T23:51:42.351552","MEAN_MOTION":14.7992332,"ECCENTRICITY":9.472e-5,"INCLINATION":51.9004,"RA_OF_ASC_NODE":293.6718,"ARG_OF_PERICENTER":52.0654,"MEAN_ANOMALY":308.0393,"EPHEMERIS_TYPE":0,"CLASSIFICATION_TYPE":"U","NORAD_CAT_ID":64837,"ELEMENT_SET_NO":999,"REV_AT_EPOCH":3655,"BSTAR":0.00049486471,"MEAN_MOTION_DOT":3.552e-5,"MEAN_MOTION_DDOT":0},{"OBJECT_NAME":"SL-14 R\/B","OBJECT_ID":"1987-088B","EPOCH":"2026-03-09T23:26:32.466624","MEAN_MOTION":14.85330836,"ECCENTRICITY":0.00190822,"INCLINATION":82.5078,"RA_OF_ASC_NODE":66.924,"ARG_OF_PERICENTER":14.7989,"MEAN_ANOMALY":345.3781,"EPHEMERIS_TYPE":0,"CLASSIFICATION_TYPE":"U","NORAD_CAT_ID":18422,"ELEMENT_SET_NO":999,"REV_AT_EPOCH":5334,"BSTAR":7.4571739e-5,"MEAN_MOTION_DOT":6.67e-6,"MEAN_MOTION_DDOT":0}]
